H1 CPF 01  gfz 2022 02 13 01  5441 terrasarx 
H2 0702601  6201 31698    2022 02 13 00 59 42 2022 02 18 00 00 42   120 1 1  0 0 0
H9
10 0 59623  53262.000000  0      66455.135  -1257621.087   6761782.096
10 0 59623  53382.000000  0    -561454.823  -1907002.589   6584900.649
10 0 59623  53502.000000  0   -1190545.546  -2512109.189   6292306.221
10 0 59623  53622.000000  0   -1808969.583  -3062453.817   5889108.980
10 0 59623  53742.000000  0   -2404881.999  -3548702.397   5382358.334
10 0 59623  53862.000000  0   -2966668.783  -3962836.640   4780927.798
10 0 59623  53982.000000  0   -3483177.610  -4298291.750   4095365.141
10 0 59623  54102.000000  0   -3943942.881  -4550065.302   3337710.262
10 0 59623  54222.000000  0   -4339400.665  -4714795.994   2521285.291
10 0 59623  54342.000000  0   -4661090.532  -4790810.855   1660459.794
10 0 59623  54462.000000  0   -4901838.870  -4778137.975    770393.336
10 0 59623  54582.000000  0   -5055918.190  -4678484.305   -133238.114
10 0 59623  54702.000000  0   -5119178.791  -4495179.326  -1034526.668
10 0 59623  54822.000000  0   -5089148.695  -4233085.593  -1917622.372
10 0 59623  54942.000000  0   -4965098.475  -3898477.532  -2767020.886
10 0 59623  55062.000000  0   -4748069.928  -3498893.070  -3567840.981
10 0 59623  55182.000000  0   -4440869.733  -3042963.219  -4306086.972
10 0 59623  55302.000000  0   -4048028.508  -2540223.584  -4968891.981
10 0 59623  55422.000000  0   -3575726.316  -2000912.391  -5544736.952
10 0 59623  55542.000000  0   -3031687.720  -1435760.418  -6023642.461
10 0 59623  55662.000000  0   -2425049.152   -855776.970  -6397331.369
10 0 59623  55782.000000  0   -1766200.639   -272036.645  -6659360.635
10 0 59623  55902.000000  0   -1066605.749    304528.757  -6805220.234
10 0 59623  56022.000000  0    -338604.916    863329.428  -6832401.565
10 0 59623  56142.000000  0     404797.494   1394307.193  -6740435.888
10 0 59623  56262.000000  0    1150158.670   1888111.158  -6530902.538
10 0 59623  56382.000000  0    1883835.696   2336259.757  -6207406.365
10 0 59623  56502.000000  0    2592230.436   2731285.159  -5775522.193
10 0 59623  56622.000000  0    3262038.367   3066857.916  -5242707.407
10 0 59623  56742.000000  0    3880496.461   3337890.111  -4618184.991
10 0 59623  56862.000000  0    4435628.952   3540616.467  -3912795.555
10 0 59623  56982.000000  0    4916484.516   3672649.704  -3138818.368
10 0 59623  57102.000000  0    5313358.294   3733008.900  -2309763.770
10 0 59623  57222.000000  0    5617994.821   3722120.962  -1440140.851
10 0 59623  57342.000000  0    5823766.628   3641792.821   -545202.515
10 0 59623  57462.000000  0    5925822.865   3495155.233    359325.670
10 0 59623  57582.000000  0    5921204.827   3286579.287   1257528.428
10 0 59623  57702.000000  0    5808923.322   3021566.888   2133589.450
10 0 59623  57822.000000  0    5589996.246   2706619.008   2972078.410
10 0 59623  57942.000000  0    5267445.762   2349084.298   3758231.536
10 0 59623  58062.000000  0    4846253.374   1956991.527   4478217.857
10 0 59623  58182.000000  0    4333276.083   1538871.238   5119383.876
10 0 59623  58302.000000  0    3737129.213   1103571.286   5670476.433
10 0 59623  58422.000000  0    3068031.450    660069.777   6121838.819
10 0 59623  58542.000000  0    2337621.210    217290.279   6465572.486
10 0 59623  58662.000000  0    1558750.306   -216075.718   6695668.679
10 0 59623  58782.000000  0     745255.177   -631738.259   6808109.354
10 0 59623  58902.000000  0     -88291.474  -1021966.975   6800933.004
10 0 59623  59022.000000  0    -926841.807  -1379734.065   6674265.847
10 0 59623  59142.000000  0   -1755143.706  -1698841.026   6430318.733
10 0 59623  59262.000000  0   -2558016.182  -1974025.486   6073349.880
10 0 59623  59382.000000  0   -3320626.201  -2201047.899   5609597.446
10 0 59623  59502.000000  0   -4028767.097  -2376758.805   5047178.442
10 0 59623  59622.000000  0   -4669128.570  -2499143.089   4395951.215
10 0 59623  59742.000000  0   -5229553.177  -2567339.902   3667346.398
10 0 59623  59862.000000  0   -5699274.118  -2581637.747   2874169.099
10 0 59623  59982.000000  0   -6069130.421  -2543445.901   2030375.201
10 0 59623  60102.000000  0   -6331754.885  -2455243.245   1150823.371
10 0 59623  60222.000000  0   -6481727.058  -2320502.977    251005.997
10 0 59623  60342.000000  0   -6515687.410  -2143595.900   -653231.131
10 0 59623  60462.000000  0   -6432411.208  -1929675.013  -1545977.660
10 0 59623  60582.000000  0   -6232837.318  -1684544.517  -2411547.599
10 0 59623  60702.000000  0   -5920053.716  -1414516.923  -3234761.348
10 0 59623  60822.000000  0   -5499240.631  -1126261.925  -4001215.514
10 0 59623  60942.000000  0   -4977573.516   -826650.927  -4697535.244
10 0 59623  61062.000000  0   -4364088.613   -522600.650  -5311604.446
10 0 59623  61182.000000  0   -3669514.327   -220920.301  -5832769.734
10 0 59623  61302.000000  0   -2906073.738     71834.761  -6252014.808
10 0 59623  61422.000000  0   -2087263.812    349499.456  -6562104.259
10 0 59623  61542.000000  0   -1227614.758    606422.557  -6757697.239
10 0 59623  61662.000000  0    -342433.977    837576.599  -6835429.426
10 0 59623  61782.000000  0     552460.751   1038652.907  -6793963.318
10 0 59623  61902.000000  0    1441015.780   1206138.660  -6634010.246
10 0 59623  62022.000000  0    2307224.056   1337377.403  -6358321.293
10 0 59623  62142.000000  0    3135408.252   1430611.054  -5971644.781
10 0 59623  62262.000000  0    3910500.660   1485002.181  -5480651.645
10 0 59623  62382.000000  0    4618315.648   1500636.884  -4893831.626
10 0 59623  62502.000000  0    5245813.132   1478508.465  -4221358.365
10 0 59623  62622.000000  0    5781345.494   1420481.346  -3474922.694
10 0 59623  62742.000000  0    6214882.801   1329235.664  -2667537.833
10 0 59623  62862.000000  0    6538212.723   1208193.718  -1813318.262
10 0 59623  62982.000000  0    6745108.801   1061429.654   -927233.591
10 0 59623  63102.000000  0    6831461.120    893563.544    -24843.015
10 0 59623  63222.000000  0    6795365.128    709643.411    877983.869
10 0 59623  63342.000000  0    6637168.258    515017.913   1765352.960
10 0 59623  63462.000000  0    6359471.639    315201.515   2621635.328
10 0 59623  63582.000000  0    5967084.092    115737.176   3431751.143
10 0 59623  63702.000000  0    5466932.713    -77940.917   4181442.167
10 0 59623  63822.000000  0    4867931.584   -260638.988   4857525.725
10 0 59623  63942.000000  0    4180813.888   -427529.088   5448128.854
10 0 59623  64062.000000  0    3417927.901   -574264.200   5942894.471
10 0 59623  64182.000000  0    2593006.675   -697079.307   6333158.150
10 0 59623  64302.000000  0    1720914.633   -792878.226   6612094.030
10 0 59623  64422.000000  0     817375.687   -859304.021   6774829.424
10 0 59623  64542.000000  0    -101313.533   -894791.733   6818524.439
10 0 59623  64662.000000  0   -1018577.657   -898602.437   6742417.111
10 0 59623  64782.000000  0   -1917860.318   -870838.372   6547835.219
10 0 59623  64902.000000  0   -2782921.264   -812438.194   6238174.184
10 0 59623  65022.000000  0   -3598128.868   -725152.895   5818842.793
10 0 59623  65142.000000  0   -4348745.623   -611503.009   5297175.636
10 0 59623  65262.000000  0   -5021200.643   -474718.008   4682311.175
10 0 59623  65382.000000  0   -5603342.689   -318658.341   3985036.261
10 0 59623  65502.000000  0   -6084668.439   -147721.864   3217599.843
10 0 59623  65622.000000  0   -6456521.331     33263.564   2393499.836
10 0 59623  65742.000000  0   -6712258.036    219159.451   1527244.528
10 0 59623  65862.000000  0   -6847375.966    404644.158    634092.058
10 0 59623  65982.000000  0   -6859598.357    584345.631   -270226.044
10 0 59623  66102.000000  0   -6748914.011    752976.473  -1169791.270
10 0 59623  66222.000000  0   -6517570.307    905467.297  -2048786.998
10 0 59623  66342.000000  0   -6170022.915   1037094.934  -2891782.873
10 0 59623  66462.000000  0   -5712842.032   1143603.387  -3684013.166
10 0 59623  66582.000000  0   -5154574.402   1221312.835  -4411637.753
10 0 59623  66702.000000  0   -4505570.543   1267214.912  -5061981.377
10 0 59623  66822.000000  0   -3777780.587   1279052.112  -5623748.168
10 0 59623  66942.000000  0   -2984524.977   1255379.870  -6087208.328
10 0 59623  67062.000000  0   -2140244.798   1195609.587  -6444355.749
10 0 59623  67182.000000  0   -1260236.314   1100033.878  -6689035.085
10 0 59623  67302.000000  0    -360374.858    969832.464  -6817036.109
10 0 59623  67422.000000  0     543165.555    807059.009  -6826157.196
10 0 59623  67542.000000  0    1434194.762    614609.550  -6716240.827
10 0 59623  67662.000000  0    2296791.202    396171.978  -6489177.245
10 0 59623  67782.000000  0    3115580.373    156157.969  -6148875.038
10 0 59623  67902.000000  0    3876005.385   -100381.752  -5701200.607
10 0 59623  68022.000000  0    4564583.563   -367858.573  -5153886.353
10 0 59623  68142.000000  0    5169148.426   -640260.865  -4516409.746
10 0 59623  68262.000000  0    5679072.149   -911281.796  -3799839.849
10 0 59623  68382.000000  0    6085461.817  -1174457.133  -3016654.152
10 0 59623  68502.000000  0    6381326.136  -1423310.769  -2180527.848
10 0 59623  68622.000000  0    6561708.386  -1651504.451  -1306097.882
10 0 59623  68742.000000  0    6623780.771  -1852987.862   -408705.595
10 0 59623  68862.000000  0    6566897.733  -2022145.408    495876.503
10 0 59623  68982.000000  0    6392606.075  -2153936.222   1391729.465
10 0 59623  69102.000000  0    6104610.091  -2244022.921   2263076.930
10 0 59623  69222.000000  0    5708693.283  -2288886.727   3094572.058
10 0 59623  69342.000000  0    5212597.887  -2285924.419   3871575.983
10 0 59623  69462.000000  0    4625865.553  -2233525.859   4580419.941
10 0 59623  69582.000000  0    3959646.552  -2131129.670   5208647.272
10 0 59623  69702.000000  0    3226479.663  -1979257.139   5745233.395
99
